AMC-1 (GE-1)            
1 24315U 96054A   24012.86591556 -.00000217  00000+0  00000+0 0  9992
2 24315   6.9892  68.0465 0010197 211.3228 127.4841  0.99510000 37413
AMC-3 (GE-3)            
1 24936U 97050A   24012.56848038 -.00000255  00000+0  00000+0 0  9997
2 24936   5.9575  73.8323 0002755 225.0015 305.3634  1.00271129 96559
ASTRA 1G                
1 25071U 97076A   24012.89966227 -.00000277  00000+0  00000+0 0  9997
2 25071   7.4439  62.7986 0007267 148.7015  17.0076  0.99040064 95591
ASTRA 2A                
1 25462U 98050A   24012.80900267  .00000074  00000+0  00000+0 0  9991
2 25462   4.8494  79.2629 0003083 212.3052 168.6375  1.00270805 37452
NSS-11 (AAP-1)          
1 26554U 00059A   24012.83267286  .00000034  00000+0  00000+0 0  9992
2 26554   0.0473 287.8146 0002504  38.4175 261.3449  1.00272110 32405
AMC-6 (GE-6)            
1 26580U 00067A   24012.76992944  .00000114  00000+0  00000+0 0  9997
2 26580   0.0523 282.8689 0002122  12.9114 314.1293  1.00269545 85009
ASTRA 2C                
1 26853U 01025A   24012.60215475 -.00000254  00000+0  00000+0 0  9991
2 26853   5.9797  73.6536 0002926 223.3315 318.9122  1.00270452 36153
NSS-7                   
1 27414U 02019A   24012.93690800 -.00000155  00000+0  00000+0 0  9994
2 27414   7.2490  66.2927 0002558 239.4317 123.4647  1.00271612 79679
NSS-6                   
1 27603U 02057A   24013.14142292 -.00000117  00000+0  00000+0 0  9995
2 27603   3.0784  85.2125 0006728 210.7538 155.1411  0.99122978 77137
AMC-11 (GE-11)          
1 28252U 04017A   24012.70387914 -.00000039  00000+0  00000+0 0  9990
2 28252   0.0243 334.6531 0002584 302.8437 336.4819  1.00271042 71987
AMC-15                  
1 28446U 04041A   24012.84824994 -.00000079  00000+0  00000+0 0  9995
2 28446   0.0338 312.8887 0002272 341.8158  17.4408  1.00271417 70420
NSS-10 (AMC-12)         
1 28526U 05003A   24013.14821069 -.00000246  00000+0  00000+0 0  9993
2 28526   4.2210  81.0124 0002849 204.7998 202.2106  1.00270555 69432
ASTRA 1KR               
1 29055U 06012A   24013.08790392  .00000128  00000+0  00000+0 0  9997
2 29055   0.0712 274.5336 0004430 347.6685 260.6870  1.00272828 64866
AMC-18                  
1 29644U 06054B   24012.85495069 -.00000084  00000+0  00000+0 0  9996
2 29644   0.3064 119.8964 0006785  84.0054 143.7020  0.98857067 62628
ASTRA 1L                
1 31306U 07016A   24012.87305142  .00000128  00000+0  00000+0 0  9995
2 31306   0.0847 301.1007 0005122 349.0885 155.1631  1.00268171 36123
ASTRA 4A (SIRIUS 4)     
1 32299U 07057A   24013.08503216  .00000041  00000+0  00000+0 0  9992
2 32299   0.0150  45.4379 0002801 243.9304 218.1130  1.00271944 59076
AMC-21                  
1 33275U 08038B   24012.70092037  .00000046  00000+0  00000+0 0  9994
2 33275   0.6527  92.3953 0002769 205.2402 301.4758  1.00272123 56605
ASTRA 1M                
1 33436U 08057A   24013.08790392  .00000128  00000+0  00000+0 0  9996
2 33436   0.0360  81.2758 0001264 152.4653 289.1434  1.00270846 55593
CIEL-2                  
1 33453U 08063A   24012.77193096  .00000067  00000+0  00000+0 0  9997
2 33453   0.4693  92.9027 0002594 199.7304 328.1606  1.00271575 55244
NSS-9                   
1 33749U 09008A   24012.83406523  .00000081  00000+0  00000+0 0  9990
2 33749   0.0329 312.4504 0001975 340.0446 302.6479  1.00269311 54636
SES-7 (PROTOSTAR 2)     
1 34941U 09027A   24012.89080407 -.00000336  00000+0  00000+0 0  9995
2 34941   0.0102  17.3892 0001871 272.4044 251.0043  1.00271922 53733
NSS-12                  
1 36032U 09058A   24012.85882845  .00000081  00000+0  00000+0 0  9990
2 36032   0.0404 291.4262 0002552   0.0231 186.5617  1.00269654 52037
SES-1                   
1 36516U 10016A   24012.84912017 -.00000105  00000+0  00000+0 0  9995
2 36516   0.0174 347.8011 0002143 298.0615  30.6533  1.00270901 50140
ASTRA 3B                
1 36581U 10021A   24013.08877416  .00000146  00000+0  00000+0 0  9997
2 36581   0.0470 353.5181 0002307 302.8275 231.1819  1.00274410 49761
SES-3                   
1 37748U 11035A   24012.84877208 -.00000092  00000+0  00000+0 0  9992
2 37748   0.0290 327.2787 0002571 327.3959  19.7092  1.00270175 45708
ASTRA 1N                
1 37775U 11041A   24012.87305142  .00000129  00000+0  00000+0 0  9995
2 37775   0.0592  36.0920 0003452 316.6466  92.5898  1.00271534 35645
SES-2                   
1 37809U 11049A   24012.85190490 -.00000186  00000+0  00000+0 0  9991
2 37809   0.0284 314.0064 0002506 343.7736  33.7365  1.00271753 45076
QUETZSAT 1              
1 37826U 11054A   24012.85390642 -.00000232  00000+0  00000+0 0  9999
2 37826   0.0375 299.9898 0003009  18.1016  24.1331  1.00268524 40990
SES-4                   
1 38087U 12007A   24013.15134352 -.00000160  00000+0  00000+0 0  9996
2 38087   0.0240  47.4669 0002469 248.0771 209.0565  1.00270842 43604
SES-5                   
1 38652U 12036A   24012.67896719  .00000043  00000+0  00000+0 0  9993
2 38652   0.0305 334.7771 0001726 309.2406  77.0398  1.00270784 35591
ASTRA 2F                
1 38778U 12051A   24013.08973140  .00000158  00000+0  00000+0 0  9996
2 38778   0.0749 248.3902 0003645   0.4670 283.7044  1.00271283 41409
SES-6                   
1 39172U 13026A   24012.86121633 -.00000252  00000+0  00000+0 0  9991
2 39172   0.0505 294.7556 0002171 336.6589 109.9475  1.00271298 38830
O3B FM5                 
1 39188U 13031A   24012.56296840 -.00000012  00000+0  00000+0 0  9998
2 39188   0.0365  17.8329 0002975 269.2096  72.9223  5.00114847192683
O3B FM4                 
1 39189U 13031B   24012.61844324 -.00000012  00000+0  00000+0 0  9991
2 39189   0.0616   2.8877 0002946 287.0383  70.0397  5.00116160192704
O3B FM2                 
1 39190U 13031C   24012.71057042 -.00000012  00000+0  00000+0 0  9997
2 39190   0.0667   2.2081 0002798 287.1748  70.5842  5.00115328192754
O3B PFM                 
1 39191U 13031D   24012.73624633 -.00000012  00000+0  00000+0 0  9996
2 39191   0.0435   9.5180 0002640 282.7855  67.6657  5.00116045192325
ASTRA 2E                
1 39285U 13056A   24012.87487890  .00000159  00000+0  00000+0 0  9995
2 39285   0.0655 332.6855 0002621 319.0589 163.5498  1.00271294 37555
SES-8                   
1 39460U 13071A   24012.73322596 -.00000259  00000+0  00000+0 0  9995
2 39460   0.0520 250.3431 0001109  96.0640 124.2493  1.00268820 35544
ASTRA 5B                
1 39617U 14011B   24012.87392164  .00000146  00000+0  00000+0 0  9991
2 39617   0.0655 309.8083 0004380 342.9389 157.1880  1.00271647 35789
O3B FM3                 
1 40079U 14038A   24012.79050399 -.00000012  00000+0  00000+0 0  9999
2 40079   0.0546   6.1067 0002002 345.9278   7.9596  5.00116607168691
O3B FM7                 
1 40080U 14038B   24012.73727309 -.00000012  00000+0  00000+0 0  9997
2 40080   0.0587   8.0414 0003969 260.8686  91.0419  5.00115912173531
O3B FM6                 
1 40081U 14038C   24012.76409117 -.00000012  00000+0  00000+0 0  9995
2 40081   0.0551   5.1321 0002661 286.3710  68.4658  5.00115197173489
O3B FM8                 
1 40082U 14038D   24012.61772152 -.00000012  00000+0  00000+0 0  9992
2 40082   0.0559   5.8115 0002772 288.2634  65.8935  5.00115265173592
O3B FM10                
1 40348U 14083A   24013.04398044 -.00000012  00000+0  00000+0 0  9999
2 40348   0.0461   3.7417 0002688 288.5771  67.6498  5.00115301165734
O3B FM11                
1 40349U 14083B   24012.85734196 -.00000012  00000+0  00000+0 0  9990
2 40349   0.0468   9.4923 0002786 268.2110  82.2622  5.00115497165567
O3B FM12                
1 40350U 14083C   24011.88518624 -.00000011  00000+0  00000+0 0  9999
2 40350   0.0474   8.6095 0002562 279.7086  71.6519  5.00115427165535
O3B FM9                 
1 40351U 14083D   24012.71132124 -.00000012  00000+0  00000+0 0  9991
2 40351   0.0467  10.9158 0002722 279.8447  69.2076  5.00114946165710
ASTRA 2G                
1 40364U 14089A   24013.08973140  .00000158  00000+0  00000+0 0  9993
2 40364   0.0392  15.7681 0002672 358.8190 157.9589  1.00271549 33135
SES-9                   
1 41380U 16013A   24012.81918434 -.00000336  00000+0  00000+0 0  9995
2 41380   0.0396 285.4648 0000698 107.9475 121.5795  1.00270287 28556
SES-10                  
1 42432U 17017A   24012.85590795 -.00000264  00000+0  00000+0 0  9999
2 42432   0.0153  46.8749 0002400 244.4761  61.7096  1.00271920 24836
SES-15                  
1 42709U 17026A   24012.70031120  .00000070  00000+0  00000+0 0  9996
2 42709   0.0198  34.3434 0000095 283.5282 276.7544  1.00268432 25252
SES-11 (ECHOSTAR 105)   
1 42967U 17063A   24013.11826326 -.00000081  00000+0  00000+0 0  9992
2 42967   0.0093  48.6875 0002779 243.0677 117.9555  1.00270779 22925
SES-14                  
1 43175U 18012B   24012.85982397 -.00000269  00000+0  00000+0 0  9998
2 43175   0.0109   7.4862 0000807 277.1600  89.2253  1.00271214 22176
O3B FM15                
1 43231U 18024A   24012.77749286 -.00000012  00000+0  00000+0 0  9999
2 43231   0.0454 359.4668 0002657 290.7616  69.7403  5.00114658106679
O3B FM16                
1 43232U 18024B   24012.83037888 -.00000012  00000+0  00000+0 0  9995
2 43232   0.0440 354.4995 0002694 294.5774  70.8911  5.00115104106608
O3B FM14                
1 43233U 18024C   24012.67049968 -.00000012  00000+0  00000+0 0  9990
2 43233   0.0443 352.5490 0002831 294.5970  72.8203  5.00115836106600
O3B FM13                
1 43234U 18024D   24012.72421859 -.00000012  00000+0  00000+0 0  9990
2 43234   0.0506  34.1791 0002097 252.7445  73.0508  5.00115302106716
SES-12                  
1 43488U 18049A   24012.90327063 -.00000260  00000+0  00000+0 0  9995
2 43488   0.0129  28.0265 0002335 246.1200 257.9032  1.00269154 20538
O3B FM20                
1 44112U 19020A   24012.69718767 -.00000012  00000+0  00000+0 0  9996
2 44112   0.0467   3.3452 0002522 280.0099  76.6142  5.00115752 87228
O3B FM19                
1 44113U 19020B   24012.72420732 -.00000012  00000+0  00000+0 0  9993
2 44113   0.0457  16.5751 0003965 262.9183  80.4591  5.00115282 87095
O3B FM17                
1 44114U 19020C   24012.60438240 -.00000012  00000+0  00000+0 0  9994
2 44114   0.0604 347.9857 0002591 301.9918  69.9920  5.00116064 87178
O3B FM18                
1 44115U 19020D   24012.95059862 -.00000012  00000+0  00000+0 0  9992
2 44115   0.0464   3.7769 0002773 289.1333  67.0578  5.00116057 87307
SES-17                  
1 49332U 21095A   24012.78428819 -.00000263  00000+0  00000+0 0  9994
2 49332   0.0136  51.8398 0000848 207.9127  67.2516  1.00271142  8952
SES-22                  
1 52933U 22071A   24013.23578993  .00000096  00000+0  00000+0 0  9993
2 52933   0.0190  74.3242 0000832 213.7782 133.9838  1.00271855  5682
SES-20                  
1 53960U 22123A   24012.70518448 -.00000091  00000+0  00000+0 0  9998
2 53960   0.0198  98.2648 0001041 342.2750 181.8913  1.00268600  4658
SES-21                  
1 53961U 22123B   24003.54638082  .00000093  00000+0  00000+0 0  9999
2 53961   0.0334  21.4761 0000936 257.6814 249.2587  1.00268189  4576
O3B MPOWER F1           
1 54755U 22174A   24009.86590594 -.00000009  00000+0  00000+0 0  9991
2 54755   0.0580  13.5604 0006134 288.1841 124.6103  5.00118376 20859
O3B MPOWER F2           
1 54756U 22174B   24009.95962921 -.00000009  00000+0  00000+0 0  9999
2 54756   0.0605  11.3732 0006892 294.8293  53.7330  4.99697769 20952
SES-18                  
1 55970U 23038A   24013.11903455 -.00000092  00000+0  00000+0 0  9990
2 55970   0.0532 239.4817 0002773  39.7804 132.5791  1.00269875  3236
SES-19                  
1 55971U 23038B   24013.23578947  .00000096  00000+0  00000+0 0  9991
2 55971   0.0277 301.0399 0001373 350.7390 130.4026  1.00270680  3206
O3B MPOWER F4           
1 56367U 23059A   24013.06038101 -.00000012  00000+0  00000+0 0  9997
2 56367   0.0416  17.3907 0007420 281.4756  61.0563  5.00114706 14216
O3B MPOWER F3           
1 56368U 23059B   24011.92916490 -.00000011  00000+0  00000+0 0  9996
2 56368   0.0391  17.2396 0005640 314.2661  28.4612  5.00687251 10344
